ONEWEB-0533             
1 55141U 23004B   24090.88662794 -.00000359  00000+0 -10320-2 0  9996
2 55141  87.9003 151.5308 0002028  95.3361 264.7999 13.12444345 62035
ONEWEB-0541             
1 55142U 23004C   24090.51417502 -.00001190  00000+0 -33942-2 0  9991
2 55142  87.9042 181.8680 0002283 106.6636 253.4742 13.11421399 59953
ONEWEB-0543             
1 55143U 23004D   24090.85187188  .00000023  00000+0  26339-4 0  9999
2 55143  87.9160 136.4592 0001725  90.4943 269.6386 13.18684997 63167
ONEWEB-0544             
1 55144U 23004E   24090.54205607  .00000077  00000+0  16185-3 0  9999
2 55144  87.9163 136.5048 0002022 102.1547 257.9811 13.18685045 63124
ONEWEB-0560             
1 55145U 23004F   24090.83924604  .00000066  00000+0  13545-3 0  9992
2 55145  87.9168 136.3920 0001639 102.9163 257.2152 13.18685381 63171
ONEWEB-0565             
1 55146U 23004G   24090.83291750  .00000008  00000+0 -12151-4 0  9992
2 55146  87.9163 136.4750 0002131 117.8080 242.3268 13.18682137 63168
